181P/Shoemaker-Levy,e,17.4791,35.4310,336.2977,3.878613,0.1290296,0.70003091,138.8960,12/20.0/2024,2000,g 11.5,4.0
# From MPEC 2024-UQ8
182P/LONEOS,e,16.2322,72.4630,54.1931,2.949019,0.1946201,0.66381556,185.3510,12/20.0/2024,2000,g 18.0,4.0
# From MPEC 2024-VJ2
183P/Korlevic-Juric,e,18.7505,3.6842,163.4159,4.700950,0.0966998,0.10256755,262.5864,12/20.0/2024,2000,g 12.5,2.0
# From MPEC 2020-W26
184P/Lovas,e,4.5712,173.2726,186.5660,3.800101,0.1330489,0.55006561,201.7280,12/20.0/2024,2000,g 13.5,4.0
# From MPEC 2024-F91
185P/Petriew,e,14.0130,214.1186,181.9137,3.099288,0.1806388,0.69957135,95.0404,12/20.0/2024,2000,g 15.0,4.0
# From MPEC 2022-X67
186P/Garradd,e,28.6346,325.9858,268.7528,4.853249,0.0921839,0.12407034,202.1507,12/20.0/2024,2000,g  7.5,4.0
# From MPEC 2020-SI8
187P/LINEAR,e,13.6613,109.8414,131.3572,4.554782,0.1013918,0.15527246,244.4034,12/20.0/2024,2000,g  9.0,4.0
# From MPEC 2023-J29
188P/LINEAR-Mueller,e,10.5240,358.9221,26.8047,4.366245,0.1080294,0.41682938,308.2343,12/20.0/2024,2000,g 11.5,4.0
# From MPEC 2022-QD9
189P/NEAT,e,20.1097,281.6757,16.2087,2.941367,0.1953801,0.58984929,164.9042,12/20.0/2024,2000,g 19.0,4.0
# From MPEC 2024-X74
190P/Mueller,e,2.1746,335.4998,50.5245,4.227269,0.1134003,0.52226581,359.5314,12/20.0/2024,2000,g 13.0,4.0
# From MPEC 2024-TD8
191P/McNaught,e,8.8393,98.1810,284.2676,3.640256,0.1419078,0.38538628,194.4918,12/20.0/2024,2000,g 13.0,4.0
# From MPEC 2024-X74
192P/Shoemaker-Levy,e,24.5856,51.6067,313.0765,6.464654,0.0599634,0.77351498,12.5598,12/20.0/2024,2000,g 15.0,4.0
# From MPEC 2024-R10
193P/LINEAR-NEAT,e,10.6808,335.1879,8.1322,3.578984,0.1455675,0.39280092,176.6718,12/20.0/2024,2000,g 14.0,4.0
# From MPEC 2024-GJ3
194P/LINEAR,e,11.8045,349.5209,128.5878,4.121529,0.1177922,0.56333760,37.6612,12/20.0/2024,2000,g 16.0,4.0
# From MPEC 2024-X74
195P/Hill,e,36.4211,243.1084,250.4856,6.453416,0.0601201,0.31182451,346.3111,12/20.0/2024,2000,g  8.5,4.0
# From MPEC 2024-GJ3
196P/Tichy,e,19.2985,24.1206,12.1214,3.805557,0.1327629,0.42774427,103.9096,12/20.0/2024,2000,g 13.5,4.0
# From MPEC 2023-UR6
197P/LINEAR,e,25.5335,66.2459,189.8011,2.900285,0.1995460,0.62310239,148.3295,12/20.0/2024,2000,g 16.5,2.0
# From MPEC 2024-VJ2
198P/ODAS,e,1.3400,358.4698,69.0355,3.592259,0.1447614,0.44464342,317.8617,12/20.0/2024,2000,g 12.5,4.0
# From MPEC 2024-Q20
199P/Shoemaker,e,24.9387,92.3471,191.7710,5.875658,0.0692021,0.50460883,34.6366,12/20.0/2024,2000,g 10.0,4.0
# From MPEC 2022-C56
200P/Larsen,e,12.0963,234.8048,134.3927,4.951916,0.0894426,0.33153501,176.2432,12/20.0/2024,2000,g  9.0,4.0
# From MPC 93588
201P/LONEOS,e,5.7384,41.5337,19.7869,3.354668,0.1604094,0.63759532,208.9027,12/20.0/2024,2000,g 14.0,4.0
# From MPEC 2023-XP6
202P/Scotti,e,2.1417,177.3014,274.4909,4.099925,0.1187245,0.25127684,25.7260,12/20.0/2024,2000,g 13.5,4.0
# From MPEC 2021-S45
203P/Korlevic,e,2.9752,290.2375,154.8900,4.668365,0.0977140,0.31641114,170.9039,12/20.0/2024,2000,g 14.5,2.0
# From MPEC 2024-JU4
204P/LINEAR-NEAT,e,6.5974,108.4755,356.7098,3.583850,0.1452711,0.48827060,110.9660,12/20.0/2024,2000,g 14.0,4.0
# From MPEC 2023_O39
205P/Giacobini,e,15.3021,179.6197,154.1719,3.542943,0.1477944,0.56729467,158.4414,12/20.0/2024,2000,g 13.0,4.0
# From MPC 75725
206P/Barnard-Boattini,e,33.6254,202.3481,189.5701,3.491195,0.1510925,0.55129103,209.3926,12/20.0/2024,2000,g 19.0,4.0
# From MPEC 2024-NE4
207P/NEAT,e,10.2001,198.1512,273.0053,3.885175,0.1287029,0.75849759,41.5917,12/20.0/2024,2000,g 16.0,4.0
# From MPEC 2024-X74
208P/McMillan,e,4.4123,36.3355,310.7038,4.038442,0.1214460,0.37384521,14.3310,12/20.0/2024,2000,g 12.5,4.0
# From MPEC 2024-TD8
209P/LINEAR,e,21.2824,62.7694,152.4874,2.958266,0.1937083,0.67401318,30.7042,12/20.0/2024,2000,g 17.0,2.0
# From MPC105242
210P/Christensen,e,10.2819,93.8250,345.9096,3.161377,0.1753435,0.83407738,300.7851,12/20.0/2024,2000,g 13.5,4.0
# From MPEC 2024-JU4
211P/Hill,e,18.9229,117.1031,4.3307,3.548790,0.1474292,0.34441102,118.9817,12/20.0/2024,2000,g 12.5,4.0
# From MPEC 2024-GJ3
212P/NEAT,e,22.1488,97.9730,14.0384,3.901787,0.1278818,0.58671153,30.5485,12/20.0/2024,2000,g 17.0,2.0
# From MPEC 2022-GA9
213P/Van Ness,e,10.3854,311.2051,6.0193,3.351074,0.1606675,0.40869621,64.8662,12/20.0/2024,2000,g 10.5,4.0
# From MPC 76570
213P-B/Van Ness,e,10.3677,5.6540,311.5747,3.351339,0.1606484,0.40887067,64.7143,12/20.0/2024,2000,g 17.0,4.0
# From MPC 76570
213P-C/Van Ness,e,10.3650,5.6334,311.5786,3.350721,0.1606929,0.40871568,64.9992,12/20.0/2024,2000,g 17.5,4.0
# From MPC 92986
214P/LINEAR,e,15.1897,348.2143,190.1244,3.616926,0.1432830,0.48608100,116.8918,12/20.0/2024,2000,g 13.0,4.0
# From MPEC 2024-F91
215P/NEAT,e,10.5765,56.6740,262.3327,4.334939,0.1092018,0.16506879,203.2089,12/20.0/2024,2000,g 11.0,4.0
# From MPEC 2024-N80
216P/LINEAR,e,9.0619,359.7918,151.7479,3.859575,0.1299855,0.44890574,45.2451,12/20.0/2024,2000,g 13.0,4.0
# From MPEC 2024-LE0
217P/LINEAR,e,12.8651,125.3720,247.0327,3.945013,0.1257857,0.68913224,340.3852,12/20.0/2024,2000,g 12.0,4.0
# From MPEC 2022-K19
218P/LINEAR,e,2.7241,174.8969,61.0464,3.067366,0.1834660,0.63070846,279.5009,12/20.0/2024,2000,g 16.0,4.0
# From MPEC 2024-X74
219P/LINEAR,e,11.5372,230.9532,107.7412,3.650295,0.1413228,0.35471750,43.7755,12/20.0/2024,2000,g 11.0,4.0
# From MPEC 2024-A43
220P/McNaught,e,8.1217,150.0971,180.6001,3.119665,0.1788719,0.50049265,263.2070,12/20.0/2024,2000,g 15.0,4.0
# From MPEC 2022-UY9
221P/LINEAR,e,11.3601,229.1123,39.4718,3.408796,0.1566039,0.51164535,170.1374,12/20.0/2024,2000,g 14.5,4.0
# From MPC 92277
222P/LINEAR,e,5.0963,6.7690,346.2840,2.897325,0.1998519,0.71475363,44.1882,12/20.0/2024,2000,g 20.0,4.0
# From MPEC 2023-A50
223P/Skiff,e,27.0073,346.7196,37.9724,4.158106,0.1162414,0.41640127,249.9666,12/20.0/2024,2000,g 12.0,4.0
# From MPEC 2024-L77
224P/LINEAR-NEAT,e,13.3039,40.0406,16.7921,3.446512,0.1540403,0.40574976,125.0492,12/20.0/2024,2000,g 15.5,4.0
# From MPEC 2024-F91
225P/LINEAR,e,21.3644,14.2059,3.9062,3.647414,0.1414903,0.63830440,70.7502,12/20.0/2024,2000,g 18.0,4.0
# From MPEC 2024-MB8
226P/Pigott-LINEAR-Kowalski,e,44.0453,54.0103,341.0291,3.765434,0.1348906,0.52898045,48.4096,12/20.0/2024,2000,g 12.5,4.0
# From MPEC 2024-R10
227P/Catalina-LINEAR,e,7.5081,36.8084,105.5774,3.437048,0.1546770,0.52761861,44.3493,12/20.0/2024,2000,g 16.5,2.0
# From MPEC 2022-HC2
228P/LINEAR,e,7.9144,30.9631,114.7495,4.163184,0.1160288,0.17716308,202.7572,12/20.0/2024,2000,g 14.1,4.0
# From MPEC 2024-UA9
229P/Gibbs,e,26.0972,157.8838,224.2057,3.923016,0.1268452,0.37793170,350.3915,12/20.0/2024,2000,g 13.0,4.0
# From MPEC 2024-P23
230P/LINEAR,e,15.4711,106.9314,313.5637,3.454681,0.1534943,0.54559983,154.4639,12/20.0/2024,2000,g 13.0,4.0
# From MPEC 2023-SQ0
231P/LINEAR-NEAT,e,12.2717,132.8143,43.8756,4.058440,0.1205495,0.24021883,244.4581,12/20.0/2024,2000,g 14.5,2.0
# From MPC112394
232P/Hill,e,14.6435,56.0222,53.2562,4.470898,0.1042586,0.33597332,217.1115,12/20.0/2024,2000,g 11.5,4.0
# From MPEC 2021-N06
233P/La Sagra,e,11.2888,74.9000,27.0116,3.026763,0.1871701,0.41291624,288.1006,12/20.0/2024,2000,g 15.0,4.0
# From MPEC 2024-DC6
234P/LINEAR,e,11.5347,179.5676,357.4228,3.796970,0.1332135,0.25707931,7.6479,12/20.0/2024,2000,g 12.0,4.0
# From MPC110497
235P/LINEAR,e,9.5877,203.5830,348.7212,3.493795,0.1509239,0.40577039,300.7591,12/20.0/2024,2000,g 12.0,4.0
# From MPEC 2024-P23
236P/LINEAR,e,16.3557,245.5694,119.4158,3.724464,0.1371224,0.50916568,353.7188,12/20.0/2024,2000,g 14.0,4.0
# From MPEC 2024-X74
237P/LINEAR,e,14.0170,245.3529,25.4474,3.514431,0.1495965,0.43342655,87.5486,12/20.0/2024,2000,g 14.5,2.0
# From MPEC 2024-L77
238P/Read,e,1.2639,51.6434,324.2715,3.166904,0.1748847,0.25085518,162.4251,12/20.0/2024,2000,g 14.5,4.0
# From MPEC 2021-F20
239P/LINEAR,e,11.3079,255.9471,220.3578,4.464554,0.1044809,0.63136805,226.7173,12/20.0/2024,2000,g 17.5,2.0
# From MPEC 2024-RQ6
240P/NEAT,e,23.5371,74.9163,352.0520,3.860690,0.1299292,0.45036292,312.5828,12/20.0/2024,2000,g 11.0,4.0
# From MPEC 2022-J42
241P/LINEAR,e,21.0946,305.4334,111.5785,4.926580,0.0901334,0.61033895,112.0100,12/20.0/2024,2000,g 13.5,4.0
# From MPEC 2024-X74
242P/Spahr,e,32.4301,180.3017,244.9018,5.536532,0.0756567,0.28265493,359.7611,12/20.0/2024,2000,g  8.0,4.0
# From MPEC 2022-K19
243P/NEAT,e,7.6442,87.6481,283.6919,3.827553,0.1316201,0.36043305,303.0784,12/20.0/2024,2000,g 12.5,4.0
# From MPEC 2024-L77
244P/Scotti,e,2.2581,354.0100,93.4093,4.902919,0.0907867,0.19989189,69.1306,12/20.0/2024,2000,g  9.0,4.0
# From MPEC 2022-CN4
245P/WISE,e,21.1726,316.8875,316.5209,4.051558,0.1208567,0.45570240,303.6477,12/20.0/2024,2000,g 14.0,4.0
# From MPEC 2024-X74
246P/NEAT,e,17.7219,74.2409,185.6800,4.239886,0.1128945,0.23690044,163.8501,12/20.0/2024,2000,g 10.5,4.0
# From MPEC 2021-F20
247P/LINEAR,e,13.6583,53.9993,47.4741,3.964729,0.1248486,0.62552870,275.7334,12/20.0/2024,2000,g 16.5,2.0
# From MPC 75730
248P/Gibbs,e,6.3517,207.8090,209.9673,5.982809,0.0673514,0.63931308,341.8891,12/20.0/2024,2000,g 14.0,4.0
# From MPEC 2022-YN2
249P/LINEAR,e,8.3854,239.0431,65.7435,2.765019,0.2143665,0.81935034,350.6334,12/20.0/2024,2000,g 15.5,4.0
# From MPEC 2024-X74
250P/Larson,e,13.1533,73.3056,45.7343,3.779554,0.1341354,0.39883843,340.1738,12/20.0/2024,2000,g 14.5,4.0
# From MPEC 2024-TD8
251P/LINEAR,e,23.3872,219.3393,31.2022,3.512457,0.1497227,0.50427794,46.5346,12/20.0/2024,2000,g 16.5,2.0
# From MPEC 2021-S45
252P/LINEAR,e,10.4182,190.9059,343.3762,3.051251,0.1849214,0.67093297,232.8018,12/20.0/2024,2000,g 17.5,4.0
# From MPEC 2024-X74
253P/PANSTARRS,e,4.9440,146.8623,230.8245,3.463024,0.1529399,0.41473328,9.1771,12/20.0/2024,2000,g 14.5,4.0
# From MPEC 2024-EF7
254P/McNaught,e,32.5416,129.1825,219.7460,4.619473,0.0992694,0.31869657,153.1485,12/20.0/2024,2000,g 11.0,4.0
# From NK 2214
255P/Levy,e,13.4049,275.6365,186.0381,2.942344,0.1952828,0.71201437,162.8862,12/20.0/2024,2000,g  9.0,4.0
# From MPEC 2024-L77
256P/LINEAR,e,27.6244,81.3294,124.0902,4.635903,0.0987422,0.41789297,64.0906,12/20.0/2024,2000,g 14.0,2.0
# From MPEC 2023-A50
